ATLAS CENTAUR R/B       
1 06155U 72065B   25343.07797898  .00001876  00000+0  26014-3 0  9996
2 06155  35.0006 116.6465 0034324 327.0367  32.8195 14.77392032827852
SL-8 R/B                
1 08459U 75112B   25343.00464906  .00000412  00000+0  14429-3 0  9997
2 08459  74.0595 185.7285 0016542 297.4603  62.4868 14.38141249618830
SL-3 R/B                
1 10114U 77057B   25343.12411659  .00015790  00000+0  36209-3 0  9993
2 10114  97.5687 146.3119 0006406 247.8573 112.1995 15.42812471654354
SEASAT 1                
1 10967U 78064A   25342.80837294  .00000964  00000+0  30827-3 0  9996
2 10967 108.0109 294.7861 0001726 249.7818 110.3142 14.46055856493378
SL-14 R/B               
1 11267U 79011B   25343.03177110  .00000841  00000+0  80801-4 0  9995
2 11267  82.5237 182.5610 0016250   5.8274 354.3131 14.91762431515266
SL-8 R/B                
1 11574U 79089B   25343.16006447  .00000495  00000+0  15776-3 0  9992
2 11574  74.0694 258.6041 0014436  94.5289 265.7517 14.42279747423055
SL-14 R/B               
1 11672U 80005B   25343.18667709  .00000884  00000+0  87124-4 0  9996
2 11672  82.5153  33.0691 0017295 104.2536 256.0605 14.90785022463005
SL-8 R/B                
1 12139U 81003B   25343.15192844  .00018518  00000+0  49172-3 0  9997
2 12139  82.9284  13.5052 0280166 132.5717 229.9531 15.06878860301022
SL-3 R/B                
1 12465U 81046B   25343.18468583  .00013062  00000+0  32994-3 0  9998
2 12465  81.2329  38.1903 0019121 337.1228  22.9160 15.39493911424497
SL-3 R/B                
1 12904U 81103B   25343.10567918  .00007488  00000+0  34439-3 0  9995
2 12904  81.1590 319.6094 0011340 226.7698 133.2587 15.20160623959461
SL-3 R/B                
1 13068U 82013B   25343.15685444  .00005898  00000+0  26259-3 0  9992
2 13068  81.1748 266.8026 0024004 122.0967 238.2599 15.21030577390580
SL-3 R/B                
1 13154U 82039B   25343.12608008  .00004048  00000+0  24873-3 0  9990
2 13154  81.1728 320.2540 0029871 264.6367  95.1449 15.09490549367970
