CCSDS_OMM_VERS = 2.0
CREATION_DATE  = 
ORIGINATOR     = 

OBJECT_NAME    = ATLAS CENTAUR R/B
OBJECT_ID      = 1972-065B
CENTER_NAME    = EARTH
REF_FRAME      = TEME
TIME_SYSTEM    = UTC
MEAN_ELEMENT_THEORY = SGP/SGP4

EPOCH          = 2025-12-09T01:52:17.383872
MEAN_MOTION    = 14.77392032
ECCENTRICITY   = .0034324
INCLINATION    = 35.0006
RA_OF_ASC_NODE = 116.6465
ARG_OF_PERICENTER = 327.0367
MEAN_ANOMALY   = 32.8195

EPHEMERIS_TYPE = 0
CLASSIFICATION_TYPE = U
NORAD_CAT_ID   = 6155
ELEMENT_SET_NO = 999
REV_AT_EPOCH   = 82785
BSTAR          = .26014E-3
MEAN_MOTION_DOT = .1876E-4
MEAN_MOTION_DDOT = 0

CCSDS_OMM_VERS = 2.0
CREATION_DATE  = 
ORIGINATOR     = 

OBJECT_NAME    = SL-8 R/B
OBJECT_ID      = 1975-112B
CENTER_NAME    = EARTH
REF_FRAME      = TEME
TIME_SYSTEM    = UTC
MEAN_ELEMENT_THEORY = SGP/SGP4

EPOCH          = 2025-12-09T00:06:41.678784
MEAN_MOTION    = 14.38141249
ECCENTRICITY   = .0016542
INCLINATION    = 74.0595
RA_OF_ASC_NODE = 185.7285
ARG_OF_PERICENTER = 297.4603
MEAN_ANOMALY   = 62.4868

EPHEMERIS_TYPE = 0
CLASSIFICATION_TYPE = U
NORAD_CAT_ID   = 8459
ELEMENT_SET_NO = 999
REV_AT_EPOCH   = 61883
BSTAR          = .14429E-3
MEAN_MOTION_DOT = .412E-5
MEAN_MOTION_DDOT = 0

CCSDS_OMM_VERS = 2.0
CREATION_DATE  = 
ORIGINATOR     = 

OBJECT_NAME    = SL-3 R/B
OBJECT_ID      = 1977-057B
CENTER_NAME    = EARTH
REF_FRAME      = TEME
TIME_SYSTEM    = UTC
MEAN_ELEMENT_THEORY = SGP/SGP4

EPOCH          = 2025-12-09T02:58:43.673376
MEAN_MOTION    = 15.42812471
ECCENTRICITY   = .0006406
INCLINATION    = 97.5687
RA_OF_ASC_NODE = 146.3119
ARG_OF_PERICENTER = 247.8573
MEAN_ANOMALY   = 112.1995

EPHEMERIS_TYPE = 0
CLASSIFICATION_TYPE = U
NORAD_CAT_ID   = 10114
ELEMENT_SET_NO = 999
REV_AT_EPOCH   = 65435
BSTAR          = .36209E-3
MEAN_MOTION_DOT = .1579E-3
MEAN_MOTION_DDOT = 0

CCSDS_OMM_VERS = 2.0
CREATION_DATE  = 
ORIGINATOR     = 

OBJECT_NAME    = SEASAT 1
OBJECT_ID      = 1978-064A
CENTER_NAME    = EARTH
REF_FRAME      = TEME
TIME_SYSTEM    = UTC
MEAN_ELEMENT_THEORY = SGP/SGP4

EPOCH          = 2025-12-08T19:24:03.422016
MEAN_MOTION    = 14.46055856
ECCENTRICITY   = .00017261
INCLINATION    = 108.0109
RA_OF_ASC_NODE = 294.7861
ARG_OF_PERICENTER = 249.7818
MEAN_ANOMALY   = 110.3142

EPHEMERIS_TYPE = 0
CLASSIFICATION_TYPE = U
NORAD_CAT_ID   = 10967
ELEMENT_SET_NO = 999
REV_AT_EPOCH   = 49337
BSTAR          = .30826717E-3
MEAN_MOTION_DOT = .964E-5
MEAN_MOTION_DDOT = 0

CCSDS_OMM_VERS = 2.0
CREATION_DATE  = 
ORIGINATOR     = 

OBJECT_NAME    = SL-14 R/B
OBJECT_ID      = 1979-011B
CENTER_NAME    = EARTH
REF_FRAME      = TEME
TIME_SYSTEM    = UTC
MEAN_ELEMENT_THEORY = SGP/SGP4

EPOCH          = 2025-12-09T00:45:45.023040
MEAN_MOTION    = 14.91762431
ECCENTRICITY   = .001625
INCLINATION    = 82.5237
RA_OF_ASC_NODE = 182.5610
ARG_OF_PERICENTER = 5.8274
MEAN_ANOMALY   = 354.3131

EPHEMERIS_TYPE = 0
CLASSIFICATION_TYPE = U
NORAD_CAT_ID   = 11267
ELEMENT_SET_NO = 999
REV_AT_EPOCH   = 51526
BSTAR          = .80801E-4
MEAN_MOTION_DOT = .841E-5
MEAN_MOTION_DDOT = 0

CCSDS_OMM_VERS = 2.0
CREATION_DATE  = 
ORIGINATOR     = 

OBJECT_NAME    = SL-8 R/B
OBJECT_ID      = 1979-089B
CENTER_NAME    = EARTH
REF_FRAME      = TEME
TIME_SYSTEM    = UTC
MEAN_ELEMENT_THEORY = SGP/SGP4

EPOCH          = 2025-12-09T03:50:29.570208
MEAN_MOTION    = 14.42279747
ECCENTRICITY   = .0014436
INCLINATION    = 74.0694
RA_OF_ASC_NODE = 258.6041
ARG_OF_PERICENTER = 94.5289
MEAN_ANOMALY   = 265.7517

EPHEMERIS_TYPE = 0
CLASSIFICATION_TYPE = U
NORAD_CAT_ID   = 11574
ELEMENT_SET_NO = 999
REV_AT_EPOCH   = 42305
BSTAR          = .15776E-3
MEAN_MOTION_DOT = .495E-5
MEAN_MOTION_DDOT = 0

CCSDS_OMM_VERS = 2.0
CREATION_DATE  = 
ORIGINATOR     = 

OBJECT_NAME    = SL-14 R/B
OBJECT_ID      = 1980-005B
CENTER_NAME    = EARTH
REF_FRAME      = TEME
TIME_SYSTEM    = UTC
MEAN_ELEMENT_THEORY = SGP/SGP4

EPOCH          = 2025-12-09T04:28:48.900576
MEAN_MOTION    = 14.90785022
ECCENTRICITY   = .0017295
INCLINATION    = 82.5153
RA_OF_ASC_NODE = 33.0691
ARG_OF_PERICENTER = 104.2536
MEAN_ANOMALY   = 256.0605

EPHEMERIS_TYPE = 0
CLASSIFICATION_TYPE = U
NORAD_CAT_ID   = 11672
ELEMENT_SET_NO = 999
REV_AT_EPOCH   = 46300
BSTAR          = .87124E-4
MEAN_MOTION_DOT = .884E-5
MEAN_MOTION_DDOT = 0

CCSDS_OMM_VERS = 2.0
CREATION_DATE  = 
ORIGINATOR     = 

OBJECT_NAME    = SL-8 R/B
OBJECT_ID      = 1981-003B
CENTER_NAME    = EARTH
REF_FRAME      = TEME
TIME_SYSTEM    = UTC
MEAN_ELEMENT_THEORY = SGP/SGP4

EPOCH          = 2025-12-09T03:38:46.617216
MEAN_MOTION    = 15.06878860
ECCENTRICITY   = .0280166
INCLINATION    = 82.9284
RA_OF_ASC_NODE = 13.5052
ARG_OF_PERICENTER = 132.5717
MEAN_ANOMALY   = 229.9531

EPHEMERIS_TYPE = 0
CLASSIFICATION_TYPE = U
NORAD_CAT_ID   = 12139
ELEMENT_SET_NO = 999
REV_AT_EPOCH   = 30102
BSTAR          = .49172E-3
MEAN_MOTION_DOT = .18518E-3
MEAN_MOTION_DDOT = 0

CCSDS_OMM_VERS = 2.0
CREATION_DATE  = 
ORIGINATOR     = 

OBJECT_NAME    = SL-3 R/B
OBJECT_ID      = 1981-046B
CENTER_NAME    = EARTH
REF_FRAME      = TEME
TIME_SYSTEM    = UTC
MEAN_ELEMENT_THEORY = SGP/SGP4

EPOCH          = 2025-12-09T04:25:56.855712
MEAN_MOTION    = 15.39493911
ECCENTRICITY   = .0019121
INCLINATION    = 81.2329
RA_OF_ASC_NODE = 38.1903
ARG_OF_PERICENTER = 337.1228
MEAN_ANOMALY   = 22.9160

EPHEMERIS_TYPE = 0
CLASSIFICATION_TYPE = U
NORAD_CAT_ID   = 12465
ELEMENT_SET_NO = 999
REV_AT_EPOCH   = 42449
BSTAR          = .32994E-3
MEAN_MOTION_DOT = .13062E-3
MEAN_MOTION_DDOT = 0

CCSDS_OMM_VERS = 2.0
CREATION_DATE  = 
ORIGINATOR     = 

OBJECT_NAME    = SL-3 R/B
OBJECT_ID      = 1981-103B
CENTER_NAME    = EARTH
REF_FRAME      = TEME
TIME_SYSTEM    = UTC
MEAN_ELEMENT_THEORY = SGP/SGP4

EPOCH          = 2025-12-09T02:32:10.681152
MEAN_MOTION    = 15.20160623
ECCENTRICITY   = .001134
INCLINATION    = 81.1590
RA_OF_ASC_NODE = 319.6094
ARG_OF_PERICENTER = 226.7698
MEAN_ANOMALY   = 133.2587

EPHEMERIS_TYPE = 0
CLASSIFICATION_TYPE = U
NORAD_CAT_ID   = 12904
ELEMENT_SET_NO = 999
REV_AT_EPOCH   = 95946
BSTAR          = .34439E-3
MEAN_MOTION_DOT = .7488E-4
MEAN_MOTION_DDOT = 0

CCSDS_OMM_VERS = 2.0
CREATION_DATE  = 
ORIGINATOR     = 

OBJECT_NAME    = SL-3 R/B
OBJECT_ID      = 1982-013B
CENTER_NAME    = EARTH
REF_FRAME      = TEME
TIME_SYSTEM    = UTC
MEAN_ELEMENT_THEORY = SGP/SGP4

EPOCH          = 2025-12-09T03:45:52.223616
MEAN_MOTION    = 15.21030577
ECCENTRICITY   = .0024004
INCLINATION    = 81.1748
RA_OF_ASC_NODE = 266.8026
ARG_OF_PERICENTER = 122.0967
MEAN_ANOMALY   = 238.2599

EPHEMERIS_TYPE = 0
CLASSIFICATION_TYPE = U
NORAD_CAT_ID   = 13068
ELEMENT_SET_NO = 999
REV_AT_EPOCH   = 39058
BSTAR          = .26259E-3
MEAN_MOTION_DOT = .5898E-4
MEAN_MOTION_DDOT = 0

CCSDS_OMM_VERS = 2.0
CREATION_DATE  = 
ORIGINATOR     = 

OBJECT_NAME    = SL-3 R/B
OBJECT_ID      = 1982-039B
CENTER_NAME    = EARTH
REF_FRAME      = TEME
TIME_SYSTEM    = UTC
MEAN_ELEMENT_THEORY = SGP/SGP4

EPOCH          = 2025-12-09T03:01:33.318912
MEAN_MOTION    = 15.09490549
ECCENTRICITY   = .0029871
INCLINATION    = 81.1728
RA_OF_ASC_NODE = 320.2540
ARG_OF_PERICENTER = 264.6367
MEAN_ANOMALY   = 95.1449

EPHEMERIS_TYPE = 0
CLASSIFICATION_TYPE = U
NORAD_CAT_ID   = 13154
ELEMENT_SET_NO = 999
REV_AT_EPOCH   = 36797
BSTAR          = .24873E-3
MEAN_MOTION_DOT = .4048E-4
MEAN_MOTION_DDOT = 0

